{"type": "FeatureCollection", "features": [ {"type": "Feature", "properties": {"norad_id": 34609, "name": "COSMOS 2251 DEB", "group": "cosmos-2251-debris", "lat": 14.197644455562834, "lon": 115.08532409836158, "alt_km": 744.3988848547297, "timestamp": "2025-12-10T11:33:53.778725+00:00", "meta": {"OBJECT_NAME": "COSMOS 2251 DEB", "OBJECT_ID": "1993-036WE", "EPOCH": "2025-12-09T19:19:20.532000", "MEAN_MOTION": 14.2177691, "ECCENTRICITY": 0.0144928, "INCLINATION": 73.733, "RA_OF_ASC_NODE": 112.0854, "ARG_OF_PERICENTER": 332.037, "MEAN_ANOMALY": 179.0685, "EPHEMERIS_TYPE": 0, "CLASSIFICATION_TYPE": "U", "NORAD_CAT_ID": 34609, "ELEMENT_SET_NO": 999, "REV_AT_EPOCH": 86590, "BSTAR": 0.0012573, "MEAN_MOTION_DOT": 3.051e-05, "MEAN_MOTION_DDOT": 0}, "tle": {"line1": "1 34609U 93036WE  25343.80509875  .00003051  00000+0  12573-2 0  9990", "line2": "2 34609  73.7330 112.0854 0144928 332.0370 179.0685 14.21776910865906"}}, "geometry": {"type": "Point", "coordinates": [115.08532409836158, 14.197644455562834]}}, {"type": "Feature", "properties": {"norad_id": 34610, "name": "COSMOS 2251 DEB", "group": "cosmos-2251-debris", "lat": -58.89522480279083, "lon": -122.07584627605952, "alt_km": 897.3616956149135, "timestamp": "2025-12-10T11:33:53.778735+00:00", "meta": {"OBJECT_NAME": "COSMOS 2251 DEB", "OBJECT_ID": "1993-036WF", "EPOCH": "2025-12-10T03:19:40.762272", "MEAN_MOTION": 14.07026052, "ECCENTRICITY": 0.018029, "INCLINATION": 74.0195, "RA_OF_ASC_NODE": 266.8813, "ARG_OF_PERICENTER": 38.0633, "MEAN_ANOMALY": 323.3081, "EPHEMERIS_TYPE": 0, "CLASSIFICATION_TYPE": "U", "NORAD_CAT_ID": 34610, "ELEMENT_SET_NO": 999, "REV_AT_EPOCH": 85523, "BSTAR": 0.0028847, "MEAN_MOTION_DOT": 5.566e-05, "MEAN_MOTION_DDOT": 0}, "tle": {"line1": "1 34610U 93036WF  25344.13866623  .00005566  00000+0  28847-2 0  9990", "line2": "2 34610  74.0195 266.8813 0180290  38.0633 323.3081 14.07026052855239"}}, "geometry": {"type": "Point", "coordinates": [-122.07584627605952, -58.89522480279083]}}, {"type": "Feature", "properties": {"norad_id": 34611, "name": "COSMOS 2251 DEB", "group": "cosmos-2251-debris", "lat": -26.13533663850825, "lon": -66.59920273305315, "alt_km": 659.9283569729669, "timestamp": "2025-12-10T11:33:53.778745+00:00", "meta": {"OBJECT_NAME": "COSMOS 2251 DEB", "OBJECT_ID": "1993-036WG", "EPOCH": "2025-12-09T18:58:07.698432", "MEAN_MOTION": 14.69412982, "ECCENTRICITY": 0.0023069, "INCLINATION": 74.0535, "RA_OF_ASC_NODE": 106.6735, "ARG_OF_PERICENTER": 149.2295, "MEAN_ANOMALY": 1.2064, "EPHEMERIS_TYPE": 0, "CLASSIFICATION_TYPE": "U", "NORAD_CAT_ID": 34611, "ELEMENT_SET_NO": 999, "REV_AT_EPOCH": 88347, "BSTAR": 0.0027423, "MEAN_MOTION_DOT": 0.00016303, "MEAN_MOTION_DDOT": 0}, "tle": {"line1": "1 34611U 93036WG  25343.79036688  .00016303  00000+0  27423-2 0  9992", "line2": "2 34611  74.0535 106.6735 0023069 149.2295   1.2064 14.69412982883470"}}, "geometry": {"type": "Point", "coordinates": [-66.59920273305315, -26.13533663850825]}}, {"type": "Feature", "properties": {"norad_id": 34613, "name": "COSMOS 2251 DEB", "group": "cosmos-2251-debris", "lat": -69.05043719160767, "lon": -126.04113516807688, "alt_km": 888.1609586527366, "timestamp": "2025-12-10T11:33:53.778755+00:00", "meta": {"OBJECT_NAME": "COSMOS 2251 DEB", "OBJECT_ID": "1993-036WJ", "EPOCH": "2025-12-09T12:55:21.253152", "MEAN_MOTION": 14.26403229, "ECCENTRICITY": 0.0110129, "INCLINATION": 73.9644, "RA_OF_ASC_NODE": 284.366, "ARG_OF_PERICENTER": 117.028, "MEAN_ANOMALY": 3.7338, "EPHEMERIS_TYPE": 0, "CLASSIFICATION_TYPE": "U", "NORAD_CAT_ID": 34613, "ELEMENT_SET_NO": 999, "REV_AT_EPOCH": 86417, "BSTAR": 0.0019073, "MEAN_MOTION_DOT": 4.868e-05, "MEAN_MOTION_DDOT": 0}, "tle": {"line1": "1 34613U 93036WJ  25343.53844043  .00004868  00000+0  19073-2 0  9993", "line2": "2 34613  73.9644 284.3660 0110129 117.0280   3.7338 14.26403229864177"}}, "geometry": {"type": "Point", "coordinates": [-126.04113516807688, -69.05043719160767]}}, {"type": "Feature", "properties": {"norad_id": 34614, "name": "COSMOS 2251 DEB", "group": "cosmos-2251-debris", "lat": -73.79417950748041, "lon": -107.43959842834774, "alt_km": 798.5980107818568, "timestamp": "2025-12-10T11:33:53.778765+00:00", "meta": {"OBJECT_NAME": "COSMOS 2251 DEB", "OBJECT_ID": "1993-036WK", "EPOCH": "2025-12-09T19:18:03.623904", "MEAN_MOTION": 14.17368164, "ECCENTRICITY": 0.0197686, "INCLINATION": 73.8718, "RA_OF_ASC_NODE": 349.1689, "ARG_OF_PERICENTER": 343.5765, "MEAN_ANOMALY": 70.6, "EPHEMERIS_TYPE": 0, "CLASSIFICATION_TYPE": "U", "NORAD_CAT_ID": 34614, "ELEMENT_SET_NO": 999, "REV_AT_EPOCH": 84725, "BSTAR": 0.0091025, "MEAN_MOTION_DOT": 0.00022363, "MEAN_MOTION_DDOT": 0}, "tle": {"line1": "1 34614U 93036WK  25343.80420861  .00022363  00000+0  91025-2 0  9999", "line2": "2 34614  73.8718 349.1689 0197686 343.5765  70.6000 14.17368164847254"}}, "geometry": {"type": "Point", "coordinates": [-107.43959842834774, -73.79417950748041]}}, {"type": "Feature", "properties": {"norad_id": 34615, "name": "COSMOS 2251 DEB", "group": "cosmos-2251-debris", "lat": -21.793699052742028, "lon": -68.82242596963808, "alt_km": 1261.8441667458837, "timestamp": "2025-12-10T11:33:53.778775+00:00", "meta": {"OBJECT_NAME": "COSMOS 2251 DEB", "OBJECT_ID": "1993-036WL", "EPOCH": "2025-12-09T21:39:15.223392", "MEAN_MOTION": 13.52200578, "ECCENTRICITY": 0.0401493, "INCLINATION": 74.005, "RA_OF_ASC_NODE": 298.6922, "ARG_OF_PERICENTER": 206.5216, "MEAN_ANOMALY": 186.9072, "EPHEMERIS_TYPE": 0, "CLASSIFICATION_TYPE": "U", "NORAD_CAT_ID": 34615, "ELEMENT_SET_NO": 999, "REV_AT_EPOCH": 82777, "BSTAR": 0.00013677, "MEAN_MOTION_DOT": 1.28e-06, "MEAN_MOTION_DDOT": 0}, "tle": {"line1": "1 34615U 93036WL  25343.90225953  .00000128  00000+0  13677-3 0  9999", "line2": "2 34615  74.0050 298.6922 0401493 206.5216 186.9072 13.52200578827775"}}, "geometry": {"type": "Point", "coordinates": [-68.82242596963808, -21.793699052742028]}}, {"type": "Feature", "properties": {"norad_id": 34619, "name": "COSMOS 2251 DEB", "group": "cosmos-2251-debris", "lat": 47.346450665569584, "lon": -137.6285028040437, "alt_km": 696.3604230689298, "timestamp": "2025-12-10T11:33:53.778785+00:00", "meta": {"OBJECT_NAME": "COSMOS 2251 DEB", "OBJECT_ID": "1993-036WQ", "EPOCH": "2025-12-09T00:54:46.223136", "MEAN_MOTION": 14.64630869, "ECCENTRICITY": 0.0094659, "INCLINATION": 74.0441, "RA_OF_ASC_NODE": 207.0525, "ARG_OF_PERICENTER": 302.7837, "MEAN_ANOMALY": 56.4237, "EPHEMERIS_TYPE": 0, "CLASSIFICATION_TYPE": "U", "NORAD_CAT_ID": 34619, "ELEMENT_SET_NO": 999, "REV_AT_EPOCH": 89244, "BSTAR": 0.0002943269, "MEAN_MOTION_DOT": 1.636e-05, "MEAN_MOTION_DDOT": 0}, "tle": {"line1": "1 34619U 93036WQ  25343.03803499  .00001636  00000+0  29433-3 0  9996", "line2": "2 34619  74.0441 207.0525 0094659 302.7837  56.4237 14.64630869892440"}}, "geometry": {"type": "Point", "coordinates": [-137.6285028040437, 47.346450665569584]}}, {"type": "Feature", "properties": {"norad_id": 34620, "name": "COSMOS 2251 DEB", "group": "cosmos-2251-debris", "lat": 50.70166865696576, "lon": -115.78537453842657, "alt_km": 775.059185844706, "timestamp": "2025-12-10T11:33:53.778795+00:00", "meta": {"OBJECT_NAME": "COSMOS 2251 DEB", "OBJECT_ID": "1993-036WR", "EPOCH": "2025-12-09T02:10:36.552576", "MEAN_MOTION": 14.49004692, "ECCENTRICITY": 0.00811362, "INCLINATION": 74.0507, "RA_OF_ASC_NODE": 226.3683, "ARG_OF_PERICENTER": 263.6404, "MEAN_ANOMALY": 95.5512, "EPHEMERIS_TYPE": 0, "CLASSIFICATION_TYPE": "U", "NORAD_CAT_ID": 34620, "ELEMENT_SET_NO": 999, "REV_AT_EPOCH": 86774, "BSTAR": 0.00260478, "MEAN_MOTION_DOT": 0.00010287, "MEAN_MOTION_DDOT": 0}, "tle": {"line1": "1 34620U 93036WR  25343.09070084  .00010287  00000+0  26048-2 0  9990", "line2": "2 34620  74.0507 226.3683 0081136 263.6404  95.5512 14.49004692867742"}}, "geometry": {"type": "Point", "coordinates": [-115.78537453842657, 50.70166865696576]}}, {"type": "Feature", "properties": {"norad_id": 34622, "name": "COSMOS 2251 DEB", "group": "cosmos-2251-debris", "lat": -74.01369019531023, "lon": -141.85174864345538, "alt_km": 867.8343274068611, "timestamp": "2025-12-10T11:33:53.778804+00:00", "meta": {"OBJECT_NAME": "COSMOS 2251 DEB", "OBJECT_ID": "1993-036WT", "EPOCH": "2025-12-08T16:55:13.351296", "MEAN_MOTION": 14.22019914, "ECCENTRICITY": 0.01041794, "INCLINATION": 74.043, "RA_OF_ASC_NODE": 314.2506, "ARG_OF_PERICENTER": 37.7275, "MEAN_ANOMALY": 139.8016, "EPHEMERIS_TYPE": 0, "CLASSIFICATION_TYPE": "U", "NORAD_CAT_ID": 34622, "ELEMENT_SET_NO": 999, "REV_AT_EPOCH": 86402, "BSTAR": 0.0018808383, "MEAN_MOTION_DOT": 4.371e-05, "MEAN_MOTION_DDOT": 0}, "tle": {"line1": "1 34622U 93036WT  25342.70501564  .00004371  00000+0  18808-2 0  9993", "line2": "2 34622  74.0430 314.2506 0104179  37.7275 139.8016 14.22019914864022"}}, "geometry": {"type": "Point", "coordinates": [-141.85174864345538, -74.01369019531023]}}, {"type": "Feature", "properties": {"norad_id": 34626, "name": "COSMOS 2251 DEB", "group": "cosmos-2251-debris", "lat": 45.2107775106955, "lon": -14.97010757253076, "alt_km": 631.667870129826, "timestamp": "2025-12-10T11:33:53.778814+00:00", "meta": {"OBJECT_NAME": "COSMOS 2251 DEB", "OBJECT_ID": "1993-036WX", "EPOCH": "2025-12-10T01:51:46.850112", "MEAN_MOTION": 14.72141924, "ECCENTRICITY": 0.0026415, "INCLINATION": 74.0487, "RA_OF_ASC_NODE": 329.0694, "ARG_OF_PERICENTER": 58.143, "MEAN_ANOMALY": 8.0504, "EPHEMERIS_TYPE": 0, "CLASSIFICATION_TYPE": "U", "NORAD_CAT_ID": 34626, "ELEMENT_SET_NO": 999, "REV_AT_EPOCH": 89105, "BSTAR": 0.0014111, "MEAN_MOTION_DOT": 8.915e-05, "MEAN_MOTION_DDOT": 0}, "tle": {"line1": "1 34626U 93036WX  25344.07762558  .00008915  00000+0  14111-2 0  9992", "line2": "2 34626  74.0487 329.0694 0026415  58.1430   8.0504 14.72141924891050"}}, "geometry": {"type": "Point", "coordinates": [-14.97010757253076, 45.2107775106955]}}]}